USA 568                 
1 66551U 24134K   25336.66670139 -.01709685  00000+0 -74303-2 0  9990
2 66551  53.1571 236.7807 0000717 110.7411 313.9012 15.87051116  2624
GLOBAL-33               
1 66554U 25267A   25346.27238416  .00013207  00000+0  43059-3 0  9997
2 66554  42.0213  59.6909 0004275  51.9902 308.1321 15.31623691  3336
ELECTRON KICK STAGE R/B 
1 66555U 25267B   25346.26092961  .00035216  00000+0  10908-2 0  9990
2 66555  42.0197  59.6038 0006567  48.8841 311.2563 15.32775527  3334
STARLINK-35699          
1 66557U 25268A   25346.25001157  .00009818  00000+0  17336-3 0  9991
2 66557  42.9999 124.0616 0001504 265.6694 336.1149 15.50515246  4589
STARLINK-35695          
1 66558U 25268B   25346.25001157 -.00103507  00000+0 -17782-2 0  9998
2 66558  43.0000 124.0586 0003345 263.4091 340.1623 15.50629983  4589
STARLINK-35419          
1 66559U 25268C   25346.25001157  .00110478  00000+0  18703-2 0  9996
2 66559  43.0000 124.0534 0002779 247.1836 358.3259 15.50460028  4588
STARLINK-35411          
1 66560U 25268D   25346.25001157  .00024517  00000+0  42228-3 0  9996
2 66560  43.0000 124.0489 0002027 268.8908 338.4370 15.50587704  4589
STARLINK-35305          
1 66561U 25268E   25346.25001157  .00060600  00000+0  10327-2 0  9994
2 66561  43.0000 124.0390 0001432 268.1561 343.1052 15.50527680  4541
STARLINK-35579          
1 66562U 25268F   25346.25001157  .00069046  00000+0  11745-2 0  9993
2 66562  43.0003 124.0433 0001536 270.4844 338.8567 15.50527480  4582
STARLINK-35437          
1 66563U 25268G   25346.25001157  .00060633  00000+0  10331-2 0  9997
2 66563  43.0000 124.0340 0001603 269.4606 343.7123 15.50531228  4584
STARLINK-35358          
1 66564U 25268H   25346.25001157  .00018568  00000+0  32178-3 0  9992
2 66564  42.9998 124.0296 0001507 264.8693 350.2181 15.50560054  4549
STARLINK-35893          
1 66565U 25268J   25346.25001157 -.00003328  00000+0 -50952-4 0  9994
2 66565  42.9999 124.0245 0001530 263.2072 353.7970 15.50570203  4580
