CCSDS_OMM_VERS = 2.0
CREATION_DATE  = 
ORIGINATOR     = 

OBJECT_NAME    = USA 568
OBJECT_ID      = 2024-134K
CENTER_NAME    = EARTH
REF_FRAME      = TEME
TIME_SYSTEM    = UTC
MEAN_ELEMENT_THEORY = SGP/SGP4

EPOCH          = 2025-12-02T16:00:03.000096
MEAN_MOTION    = 15.87051116
ECCENTRICITY   = .0000717
INCLINATION    = 53.1571
RA_OF_ASC_NODE = 236.7807
ARG_OF_PERICENTER = 110.7411
MEAN_ANOMALY   = 313.9012

EPHEMERIS_TYPE = 0
CLASSIFICATION_TYPE = U
NORAD_CAT_ID   = 66551
ELEMENT_SET_NO = 999
REV_AT_EPOCH   = 262
BSTAR          = -.74303E-2
MEAN_MOTION_DOT = -.1709685E-1
MEAN_MOTION_DDOT = 0

CCSDS_OMM_VERS = 2.0
CREATION_DATE  = 
ORIGINATOR     = 

OBJECT_NAME    = GLOBAL-33
OBJECT_ID      = 2025-267A
CENTER_NAME    = EARTH
REF_FRAME      = TEME
TIME_SYSTEM    = UTC
MEAN_ELEMENT_THEORY = SGP/SGP4

EPOCH          = 2025-12-12T06:32:13.991424
MEAN_MOTION    = 15.31623691
ECCENTRICITY   = .00042754
INCLINATION    = 42.0213
RA_OF_ASC_NODE = 59.6909
ARG_OF_PERICENTER = 51.9902
MEAN_ANOMALY   = 308.1321

EPHEMERIS_TYPE = 0
CLASSIFICATION_TYPE = U
NORAD_CAT_ID   = 66554
ELEMENT_SET_NO = 999
REV_AT_EPOCH   = 333
BSTAR          = .4305913E-3
MEAN_MOTION_DOT = .13207E-3
MEAN_MOTION_DDOT = 0

CCSDS_OMM_VERS = 2.0
CREATION_DATE  = 
ORIGINATOR     = 

OBJECT_NAME    = ELECTRON KICK STAGE R/B
OBJECT_ID      = 2025-267B
CENTER_NAME    = EARTH
REF_FRAME      = TEME
TIME_SYSTEM    = UTC
MEAN_ELEMENT_THEORY = SGP/SGP4

EPOCH          = 2025-12-12T06:15:44.318304
MEAN_MOTION    = 15.32775527
ECCENTRICITY   = .00065674
INCLINATION    = 42.0197
RA_OF_ASC_NODE = 59.6038
ARG_OF_PERICENTER = 48.8841
MEAN_ANOMALY   = 311.2563

EPHEMERIS_TYPE = 0
CLASSIFICATION_TYPE = U
NORAD_CAT_ID   = 66555
ELEMENT_SET_NO = 999
REV_AT_EPOCH   = 333
BSTAR          = .10907827E-2
MEAN_MOTION_DOT = .35216E-3
MEAN_MOTION_DDOT = 0

CCSDS_OMM_VERS = 2.0
CREATION_DATE  = 
ORIGINATOR     = 

OBJECT_NAME    = STARLINK-35699
OBJECT_ID      = 2025-268A
CENTER_NAME    = EARTH
REF_FRAME      = TEME
TIME_SYSTEM    = UTC
MEAN_ELEMENT_THEORY = SGP/SGP4

EPOCH          = 2025-12-12T06:00:00.999648
MEAN_MOTION    = 15.50515246
ECCENTRICITY   = .00015041
INCLINATION    = 42.9999
RA_OF_ASC_NODE = 124.0616
ARG_OF_PERICENTER = 265.6694
MEAN_ANOMALY   = 336.1149

EPHEMERIS_TYPE = 0
CLASSIFICATION_TYPE = U
NORAD_CAT_ID   = 66557
ELEMENT_SET_NO = 999
REV_AT_EPOCH   = 458
BSTAR          = .1733561E-3
MEAN_MOTION_DOT = .9818E-4
MEAN_MOTION_DDOT = 0

CCSDS_OMM_VERS = 2.0
CREATION_DATE  = 
ORIGINATOR     = 

OBJECT_NAME    = STARLINK-35695
OBJECT_ID      = 2025-268B
CENTER_NAME    = EARTH
REF_FRAME      = TEME
TIME_SYSTEM    = UTC
MEAN_ELEMENT_THEORY = SGP/SGP4

EPOCH          = 2025-12-12T06:00:00.999648
MEAN_MOTION    = 15.50629983
ECCENTRICITY   = .00033455
INCLINATION    = 43.0000
RA_OF_ASC_NODE = 124.0586
ARG_OF_PERICENTER = 263.4091
MEAN_ANOMALY   = 340.1623

EPHEMERIS_TYPE = 0
CLASSIFICATION_TYPE = U
NORAD_CAT_ID   = 66558
ELEMENT_SET_NO = 999
REV_AT_EPOCH   = 458
BSTAR          = -.17781995E-2
MEAN_MOTION_DOT = -.103507E-2
MEAN_MOTION_DDOT = 0

CCSDS_OMM_VERS = 2.0
CREATION_DATE  = 
ORIGINATOR     = 

OBJECT_NAME    = STARLINK-35419
OBJECT_ID      = 2025-268C
CENTER_NAME    = EARTH
REF_FRAME      = TEME
TIME_SYSTEM    = UTC
MEAN_ELEMENT_THEORY = SGP/SGP4

EPOCH          = 2025-12-12T06:00:00.999648
MEAN_MOTION    = 15.50460028
ECCENTRICITY   = .00027795
INCLINATION    = 43.0000
RA_OF_ASC_NODE = 124.0534
ARG_OF_PERICENTER = 247.1836
MEAN_ANOMALY   = 358.3259

EPHEMERIS_TYPE = 0
CLASSIFICATION_TYPE = U
NORAD_CAT_ID   = 66559
ELEMENT_SET_NO = 999
REV_AT_EPOCH   = 458
BSTAR          = .18702848E-2
MEAN_MOTION_DOT = .110478E-2
MEAN_MOTION_DDOT = 0

CCSDS_OMM_VERS = 2.0
CREATION_DATE  = 
ORIGINATOR     = 

OBJECT_NAME    = STARLINK-35411
OBJECT_ID      = 2025-268D
CENTER_NAME    = EARTH
REF_FRAME      = TEME
TIME_SYSTEM    = UTC
MEAN_ELEMENT_THEORY = SGP/SGP4

EPOCH          = 2025-12-12T06:00:00.999648
MEAN_MOTION    = 15.50587704
ECCENTRICITY   = .00020275
INCLINATION    = 43.0000
RA_OF_ASC_NODE = 124.0489
ARG_OF_PERICENTER = 268.8908
MEAN_ANOMALY   = 338.4370

EPHEMERIS_TYPE = 0
CLASSIFICATION_TYPE = U
NORAD_CAT_ID   = 66560
ELEMENT_SET_NO = 999
REV_AT_EPOCH   = 458
BSTAR          = .42228291E-3
MEAN_MOTION_DOT = .24517E-3
MEAN_MOTION_DDOT = 0

CCSDS_OMM_VERS = 2.0
CREATION_DATE  = 
ORIGINATOR     = 

OBJECT_NAME    = STARLINK-35305
OBJECT_ID      = 2025-268E
CENTER_NAME    = EARTH
REF_FRAME      = TEME
TIME_SYSTEM    = UTC
MEAN_ELEMENT_THEORY = SGP/SGP4

EPOCH          = 2025-12-12T06:00:00.999648
MEAN_MOTION    = 15.50527680
ECCENTRICITY   = .00014327
INCLINATION    = 43.0000
RA_OF_ASC_NODE = 124.0390
ARG_OF_PERICENTER = 268.1561
MEAN_ANOMALY   = 343.1052

EPHEMERIS_TYPE = 0
CLASSIFICATION_TYPE = U
NORAD_CAT_ID   = 66561
ELEMENT_SET_NO = 999
REV_AT_EPOCH   = 454
BSTAR          = .10326814E-2
MEAN_MOTION_DOT = .606E-3
MEAN_MOTION_DDOT = 0

CCSDS_OMM_VERS = 2.0
CREATION_DATE  = 
ORIGINATOR     = 

OBJECT_NAME    = STARLINK-35579
OBJECT_ID      = 2025-268F
CENTER_NAME    = EARTH
REF_FRAME      = TEME
TIME_SYSTEM    = UTC
MEAN_ELEMENT_THEORY = SGP/SGP4

EPOCH          = 2025-12-12T06:00:00.999648
MEAN_MOTION    = 15.50527480
ECCENTRICITY   = .0001536
INCLINATION    = 43.0003
RA_OF_ASC_NODE = 124.0433
ARG_OF_PERICENTER = 270.4844
MEAN_ANOMALY   = 338.8567

EPHEMERIS_TYPE = 0
CLASSIFICATION_TYPE = U
NORAD_CAT_ID   = 66562
ELEMENT_SET_NO = 999
REV_AT_EPOCH   = 458
BSTAR          = .11745339E-2
MEAN_MOTION_DOT = .69046E-3
MEAN_MOTION_DDOT = 0

CCSDS_OMM_VERS = 2.0
CREATION_DATE  = 
ORIGINATOR     = 

OBJECT_NAME    = STARLINK-35437
OBJECT_ID      = 2025-268G
CENTER_NAME    = EARTH
REF_FRAME      = TEME
TIME_SYSTEM    = UTC
MEAN_ELEMENT_THEORY = SGP/SGP4

EPOCH          = 2025-12-12T06:00:00.999648
MEAN_MOTION    = 15.50531228
ECCENTRICITY   = .00016035
INCLINATION    = 43.0000
RA_OF_ASC_NODE = 124.0340
ARG_OF_PERICENTER = 269.4606
MEAN_ANOMALY   = 343.7123

EPHEMERIS_TYPE = 0
CLASSIFICATION_TYPE = U
NORAD_CAT_ID   = 66563
ELEMENT_SET_NO = 999
REV_AT_EPOCH   = 458
BSTAR          = .10330952E-2
MEAN_MOTION_DOT = .60633E-3
MEAN_MOTION_DDOT = 0

CCSDS_OMM_VERS = 2.0
CREATION_DATE  = 
ORIGINATOR     = 

OBJECT_NAME    = STARLINK-35358
OBJECT_ID      = 2025-268H
CENTER_NAME    = EARTH
REF_FRAME      = TEME
TIME_SYSTEM    = UTC
MEAN_ELEMENT_THEORY = SGP/SGP4

EPOCH          = 2025-12-12T06:00:00.999648
MEAN_MOTION    = 15.50560054
ECCENTRICITY   = .00015075
INCLINATION    = 42.9998
RA_OF_ASC_NODE = 124.0296
ARG_OF_PERICENTER = 264.8693
MEAN_ANOMALY   = 350.2181

EPHEMERIS_TYPE = 0
CLASSIFICATION_TYPE = U
NORAD_CAT_ID   = 66564
ELEMENT_SET_NO = 999
REV_AT_EPOCH   = 454
BSTAR          = .32177849E-3
MEAN_MOTION_DOT = .18568E-3
MEAN_MOTION_DDOT = 0

CCSDS_OMM_VERS = 2.0
CREATION_DATE  = 
ORIGINATOR     = 

OBJECT_NAME    = STARLINK-35893
OBJECT_ID      = 2025-268J
CENTER_NAME    = EARTH
REF_FRAME      = TEME
TIME_SYSTEM    = UTC
MEAN_ELEMENT_THEORY = SGP/SGP4

EPOCH          = 2025-12-12T06:00:00.999648
MEAN_MOTION    = 15.50570203
ECCENTRICITY   = .00015308
INCLINATION    = 42.9999
RA_OF_ASC_NODE = 124.0245
ARG_OF_PERICENTER = 263.2072
MEAN_ANOMALY   = 353.7970

EPHEMERIS_TYPE = 0
CLASSIFICATION_TYPE = U
NORAD_CAT_ID   = 66565
ELEMENT_SET_NO = 999
REV_AT_EPOCH   = 458
BSTAR          = -.50951517E-4
MEAN_MOTION_DOT = -.3328E-4
MEAN_MOTION_DDOT = 0

